[{"OBJECT_NAME":"STARLINK-5593","OBJECT_ID":"2023-028Y","EPOCH":"2026-03-09T21:16:36.092640","MEAN_MOTION":14.98328248,"ECCENTRICITY":0.00030663,"INCLINATION":69.999,"RA_OF_ASC_NODE":243.7948,"ARG_OF_PERICENTER":268.3436,"MEAN_ANOMALY":91.7372,"EPHEMERIS_TYPE":0,"CLASSIFICATION_TYPE":"U","NORAD_CAT_ID":55763,"ELEMENT_SET_NO":999,"REV_AT_EPOCH":16607,"BSTAR":-3.5436797e-5,"MEAN_MOTION_DOT":-5.16e-6,"MEAN_MOTION_DDOT":0},{"OBJECT_NAME":"CZ-4B DEB","OBJECT_ID":"2006-015F","EPOCH":"2026-03-09T03:45:22.603968","MEAN_MOTION":14.99561687,"ECCENTRICITY":0.00700337,"INCLINATION":97.7654,"RA_OF_ASC_NODE":137.4599,"ARG_OF_PERICENTER":35.4601,"MEAN_ANOMALY":355.3004,"EPHEMERIS_TYPE":0,"CLASSIFICATION_TYPE":"U","NORAD_CAT_ID":29539,"ELEMENT_SET_NO":999,"REV_AT_EPOCH":5458,"BSTAR":0.0013707202,"MEAN_MOTION_DOT":0.00017712,"MEAN_MOTION_DDOT":0}]
